     2.100          NAVIGATION                              RINEX VERSION / TYPE
fic2rin                                 09/28/2011 00:16:06 PGM / RUN BY / DATE
                                                            END OF HEADER
20 11  9 27 10  0  0.0  .535282306373D-04  .568434188608D-12  .000000000000D+00
     .460000000000D+02  .975625000000D+02  .543558355673D-08  .916485632585D+00
     .495836138725D-05  .457290397026D-02  .418536365032D-05  .515358938980D+04
     .208800000000D+06 -.745058059692D-07 -.211775841273D+01  .633299350739D-07
     .932006055256D+00  .280437500000D+03  .126251270922D+01 -.891072831046D-08
     .514664294977D-09  .100000000000D+01  .165500000000D+04  .000000000000D+00
     .240000000000D+01  .000000000000D+00 -.745058059692D-08  .460000000000D+02
     .201606000000D+06  .400000000000D+01
23 11  9 27 10  0  0.0  .272633042186D-03 -.306954461848D-11  .000000000000D+00
     .620000000000D+02 -.105156250000D+03  .480770026001D-08 -.217461776236D+01
    -.564754009247D-05  .758365623187D-02  .575371086597D-05  .515372811890D+04
     .208800000000D+06 -.577419996262D-07 -.101746221444D+01 -.214204192162D-06
     .962792361629D+00  .274500000000D+03 -.305152490410D+01 -.840749306298D-08
    -.358586365133D-09  .100000000000D+01  .165500000000D+04  .000000000000D+00
     .240000000000D+01  .000000000000D+00 -.200234353542D-07  .620000000000D+02
     .201606000000D+06  .400000000000D+01
24 11  9 27 10  0  0.0  .427298247814D-03  .318323145621D-11  .000000000000D+00
     .440000000000D+02  .445312500000D+02  .423589072757D-08 -.278329537497D+01
     .240840017796D-05  .670317246113D-02  .139381736517D-04  .515343021965D+04
     .208800000000D+06 -.447034835815D-07 -.306997534980D+01  .428408384323D-07
     .948713061021D+00  .105593750000D+03 -.178980172591D+00 -.786604193793D-08
     .110004582132D-09  .100000000000D+01  .165500000000D+04  .000000000000D+00
     .340000000000D+01  .000000000000D+00 -.139698386192D-08  .440000000000D+02
     .201606000000D+06  .400000000000D+01
25 11  9 27 10  0  0.0  .206576660275D-04  .181898940355D-11  .000000000000D+00
     .280000000000D+02  .708750000000D+02  .495520640424D-08  .745804497705D+00
     .374019145966D-05  .102288648486D-02  .571645796299D-05  .515358406639D+04
     .208800000000D+06  .577419996262D-07  .105175251682D+01  .223517417908D-07
     .965273293679D+00  .269625000000D+03  .996008038041D+00 -.844535178280D-08
     .481091467962D-09  .100000000000D+01  .165500000000D+04  .000000000000D+00
     .240000000000D+01  .000000000000D+00  .558793544769D-08  .280000000000D+02
     .201606000000D+06  .400000000000D+01
26 11  9 27 10  0  0.0 -.171056017280D-03 -.129602995003D-10  .000000000000D+00
     .119000000000D+03 -.119875000000D+03  .419196032626D-08 -.236084342002D+01
    -.631995499134D-05  .203923786758D-01  .665895640850D-05  .515365529060D+04
     .208800000000D+06  .299885869026D-06 -.949906645642D+00  .596046447754D-07
     .985846505195D+00  .255656250000D+03  .116115468465D+01 -.783996942334D-08
    -.340728478423D-09  .100000000000D+01  .165500000000D+04  .000000000000D+00
     .240000000000D+01  .000000000000D+00 -.605359673500D-08  .119000000000D+03
     .201606000000D+06  .400000000000D+01
27 11  9 27 10  0  0.0  .309392809868D-03  .375166564481D-11  .000000000000D+00
     .860000000000D+02 -.140625000000D+01  .377372861952D-08 -.140385916647D+01
    -.465661287308D-07  .216362099163D-01  .157784670591D-04  .515363227844D+04
     .208800000000D+06 -.486150383949D-06 -.256403135534D-01  .214204192162D-06
     .981881445681D+00  .931562500000D+02 -.120025658897D+01 -.780961101593D-08
     .156792245312D-09  .100000000000D+01  .165500000000D+04  .000000000000D+00
     .485000000000D+01  .630000000000D+02 -.419095158577D-08  .860000000000D+02
     .201606000000D+06  .400000000000D+01
28 11  9 27 10  0  0.0  .708424486220D-04  .306954461848D-11  .000000000000D+00
     .128000000000D+03  .614062500000D+02  .485555939640D-08 -.308755679291D+00
     .336207449436D-05  .172203119146D-01  .475905835629D-05  .515369525909D+04
     .208800000000D+06 -.104308128357D-06  .110805066182D+01  .145286321640D-06
     .975682982781D+00  .297718750000D+03 -.187973737244D+01 -.869786230088D-08
     .357872049664D-09  .100000000000D+01  .165500000000D+04  .000000000000D+00
     .240000000000D+01  .000000000000D+00 -.102445483208D-07  .128000000000D+03
     .201606000000D+06  .400000000000D+01
29 11  9 27 10  0  0.0  .243405345827D-03  .329691829393D-11  .000000000000D+00
     .150000000000D+02 -.844375000000D+02  .482877256633D-08  .178515214508D+01
    -.445358455181D-05  .219235452823D-02  .674650073051D-05  .515371474075D+04
     .208800000000D+06  .121071934700D-06  .215193245701D+01  .223517417908D-07
     .962091268380D+00  .247718750000D+03 -.116103180538D+01 -.830606026646D-08
    -.720387149874D-09  .100000000000D+01  .165500000000D+04  .000000000000D+00
     .240000000000D+01  .000000000000D+00 -.931322574615D-08  .150000000000D+02
     .201606000000D+06  .400000000000D+01
30 11  9 27 10  0  0.0  .792159698904D-04 -.727595761418D-11  .000000000000D+00
     .490000000000D+02  .742500000000D+02  .514592863430D-08 -.281521548674D+00
     .400841236115D-05  .117268314352D-01  .673532485962D-05  .515542794800D+04
     .208800000000D+06 -.894069671631D-07  .962987924518D+00 -.186264514923D-07
     .956616821193D+00  .247000000000D+03  .157998558527D+01 -.868000441417D-08
     .551451541599D-09  .100000000000D+01  .165500000000D+04  .000000000000D+00
     .240000000000D+01  .000000000000D+00 -.419095158577D-08  .490000000000D+02
     .201606000000D+06  .400000000000D+01
31 11  9 27 10  0  0.0  .147323124111D-03  .545696821064D-11  .000000000000D+00
     .102000000000D+03 -.232187500000D+02  .387587573150D-08  .249130964934D+01
    -.946223735809D-06  .768025626894D-02  .144727528095D-04  .515374756432D+04
     .208800000000D+06  .191852450371D-06  .299021567220D-01  .484287738800D-07
     .980613498008D+00  .108125000000D+03 -.952968395667D+00 -.755138597411D-08
     .596453416107D-10  .100000000000D+01  .165500000000D+04  .000000000000D+00
     .340000000000D+01  .000000000000D+00 -.130385160446D-07  .102000000000D+03
     .201606000000D+06  .400000000000D+01
32 11  9 27 10  0  0.0 -.335829798132D-03 -.648014975013D-11  .000000000000D+00
     .560000000000D+02  .888437500000D+02  .494484882994D-08 -.305834806082D+01
     .466033816338D-05  .122061081929D-01  .290945172310D-05  .515356436157D+04
     .208800000000D+06 -.875443220139D-07 -.199033615898D+01  .217929482460D-06
     .953556901278D+00  .314187500000D+03 -.726826024890D+00 -.844285167866D-08
     .527164815673D-09  .100000000000D+01  .165500000000D+04  .000000000000D+00
     .240000000000D+01  .000000000000D+00 -.279396772385D-08  .560000000000D+02
     .201606000000D+06  .400000000000D+01
31 11  9 27  9 59 44.0  .147315673530D-03  .545696821064D-11  .000000000000D+00
     .200000000000D+01 -.232187500000D+02  .387551857376D-08  .248897625112D+01
    -.946223735809D-06  .768025475554D-02  .144727528095D-04  .515374756241D+04
     .208784000000D+06  .191852450371D-06  .299023191059D-01  .484287738800D-07
     .980613518489D+00  .108125000000D+03 -.952968577069D+00 -.755138597411D-08
     .596453416107D-10  .100000000000D+01  .165500000000D+04  .000000000000D+00
     .240000000000D+01  .000000000000D+00 -.130385160446D-07  .200000000000D+01
     .201966000000D+06  .400000000000D+01
 5 11  9 27  9 59 44.0 -.223926268518D-03 -.522959453519D-11  .000000000000D+00
     .400000000000D+01  .900937500000D+02  .506235372450D-08 -.249214383888D+00
     .481493771076D-05  .246042245999D-02  .362284481525D-05  .515375899696D+04
     .208784000000D+06  .651925802231D-07 -.207938132288D+01 -.502914190292D-07
     .952913119308D+00  .302687500000D+03  .151061504569D+00 -.870536261330D-08
     .558594696283D-09  .100000000000D+01  .165500000000D+04  .000000000000D+00
     .240000000000D+01  .000000000000D+00 -.102445483208D-07  .400000000000D+01
     .207456000000D+06  .400000000000D+01
30 11  9 27  9 59 44.0  .792257487774D-04 -.693489710102D-11  .000000000000D+00
     .300000000000D+01  .742500000000D+02  .514592863430D-08 -.283852255129D+00
     .400841236115D-05  .117268360918D-01  .673532485962D-05  .515542792511D+04
     .208784000000D+06 -.894069671631D-07  .962988066421D+00 -.186264514923D-07
     .956616812416D+00  .247000000000D+03  .157998500888D+01 -.868000441417D-08
     .551451541599D-09  .100000000000D+01  .165500000000D+04  .000000000000D+00
     .240000000000D+01  .000000000000D+00 -.419095158577D-08  .300000000000D+01
     .207516000000D+06  .400000000000D+01
 5 11  9 27 11 59 44.0 -.223963987082D-03 -.522959453519D-11  .000000000000D+00
     .500000000000D+01  .949375000000D+02  .494092009487D-08  .800806056947D+00
     .502355396748D-05  .246123597026D-02  .352784991264D-05  .515376063728D+04
     .215984000000D+06  .577419996262D-07 -.207944315750D+01  .104308128357D-06
     .952917481729D+00  .306093750000D+03  .151172610272D+00 -.857571435578D-08
     .497877881469D-09  .100000000000D+01  .165500000000D+04  .000000000000D+00
     .240000000000D+01  .000000000000D+00 -.102445483208D-07  .500000000000D+01
     .208806000000D+06  .400000000000D+01
30 11  9 27 11 59 44.0  .791759230196D-04 -.693489710102D-11  .000000000000D+00
     .410000000000D+02  .778125000000D+02  .519128766654D-08  .765284254030D+00
     .403448939323D-05  .117265337612D-01  .683590769768D-05  .515542723274D+04
     .215984000000D+06 -.149011611938D-06  .962925433047D+00 -.335276126862D-07
     .956620879328D+00  .247781250000D+03  .157996250481D+01 -.865428905731D-08
     .581095633537D-09  .100000000000D+01  .165500000000D+04  .000000000000D+00
     .240000000000D+01  .000000000000D+00 -.419095158577D-08  .410000000000D+02
     .208806000000D+06  .400000000000D+01
